[{"OBJECT_NAME":"SKYSAT-A","OBJECT_ID":"2013-066C","EPOCH":"2026-03-09T23:11:31.147872","MEAN_MOTION":15.12354605,"ECCENTRICITY":0.00202509,"INCLINATION":97.395,"RA_OF_ASC_NODE":121.5014,"ARG_OF_PERICENTER":299.3966,"MEAN_ANOMALY":60.5243,"EPHEMERIS_TYPE":0,"CLASSIFICATION_TYPE":"U","NORAD_CAT_ID":39418,"ELEMENT_SET_NO":999,"REV_AT_EPOCH":67348,"BSTAR":0.0002547658,"MEAN_MOTION_DOT":4.374e-5,"MEAN_MOTION_DDOT":0},{"OBJECT_NAME":"STARLINK-3658","OBJECT_ID":"2022-029V","EPOCH":"2026-03-09T07:05:02.188608","MEAN_MOTION":15.08841758,"ECCENTRICITY":0.00013142,"INCLINATION":53.2175,"RA_OF_ASC_NODE":80.8904,"ARG_OF_PERICENTER":87.5834,"MEAN_ANOMALY":272.5309,"EPHEMERIS_TYPE":0,"CLASSIFICATION_TYPE":"U","NORAD_CAT_ID":52107,"ELEMENT_SET_NO":999,"REV_AT_EPOCH":22072,"BSTAR":3.9427661e-5,"MEAN_MOTION_DOT":3.4e-6,"MEAN_MOTION_DDOT":0}]
